OBJECT_NAME,OBJECT_ID,EPOCH,MEAN_MOTION,ECCENTRICITY,INCLINATION,RA_OF_ASC_NODE,ARG_OF_PERICENTER,MEAN_ANOMALY,EPHEMERIS_TYPE,CLASSIFICATION_TYPE,NORAD_CAT_ID,ELEMENT_SET_NO,REV_AT_EPOCH,BSTAR,MEAN_MOTION_DOT,MEAN_MOTION_DDOT,SEMIMAJOR_AXIS,SATELLITE_TYPE
BRITE-AUSTRIA,2013-009F,2024-12-31T14:04:40.293408,14.36131145,0.0010945,98.3817,188.7842,35.6986,324.493,0,U,39091,999,62059,0.0003262,9.08e-06,0.0,7149.446832423751,CubeSat
IRIDIUM 107,2017-061F,2024-12-31T17:48:42.577344,14.34217356,0.0001551,86.3967,247.7249,92.3664,267.7709,0,U,42960,999,37850,5.373e-05,1.7e-06,0.0,7155.805464887854,Iridium Next
GLOBALSTAR M084,2011-080A,2024-12-31T22:23:14.138592,12.62273122,0.0001326,51.9979,197.6567,77.5722,69.9784,0,U,38040,999,60154,4.0869e-05,-9.6e-07,0.0,7791.713074249218,Globalstar
IRIDIUM 119,2017-061E,2024-12-31T15:40:49.871136,14.34216328,0.00018,86.3964,247.7439,78.1412,281.9985,0,U,42959,999,37848,0.00027594,7.93e-06,0.0,7155.808884254467,Iridium Next
STRATOSAT-TK 1 (RS52S),2023-091B,2025-01-01T02:23:10.988736,15.25551567,0.0012264,97.5819,60.9773,148.6354,211.5617,0,U,57167,999,8358,0.0021376,0.00054612,0.0,6867.266683205433,Amateur Radio
ORBCOMM FM27,1998-053G,2024-12-31T15:59:13.080768,14.37270787,0.0001907,45.0064,341.4458,312.3523,47.7163,0,U,25481,999,37356,0.0017784,5.211e-05,0.0,7145.667035741618,Orbcomm
GRBALPHA,2021-022AD,2025-01-01T03:21:35.540352,15.45697971,0.0010713,97.4392,267.4165,132.5483,227.6672,0,U,47959,999,20775,0.0020857,0.00101987,0.0,6807.46499426965,CubeSat
PROMETHEUS 2-3,2016-067H,2024-12-31T19:48:39.202272,15.31528932,0.0008182,98.0849,196.7966,99.6205,260.5959,0,U,41855,999,44582,0.0020593,0.00063132,0.0,6849.386987497717,CubeSat
DELFI-N3XT,2013-066N,2024-12-31T11:50:07.322784,14.84280922,0.0091025,97.8385,280.3747,165.2058,195.1852,0,U,39428,999,59529,0.0016651,0.00014993,0.0,6993.980832523326,CubeSat
ROBUSTA-1E (ENSO),2023-185J,2025-01-01T02:57:21.565728,15.37587317,0.0008571,97.3998,73.245,299.1586,60.88,0,U,58470,999,6039,0.00161,0.0005976,0.0,6831.383230897343,CubeSat
DELFI-N3XT,2013-066N,2024-12-31T11:50:07.322784,14.84280922,0.0091025,97.8385,280.3747,165.2058,195.1852,0,U,39428,999,59529,0.0016651,0.00014993,0.0,6993.980832523326,CubeSat
SPACEBEE-6,2018-099BN,2025-01-01T04:25:06.614112,15.86497495,0.0007754,97.4973,82.2169,297.5781,62.4701,0,U,43818,999,33340,0.0042928,0.01206572,0.0,6690.248472028588,CubeSat
SHIELDS 1,2018-104B,2024-12-31T18:36:49.996224,15.48903673,0.0009781,85.0201,148.0045,45.8425,314.3634,0,U,43850,999,33662,0.00075666,0.00041035,0.0,6798.068998442889,CubeSat
PROPCUBE 3,2015-058K,2024-12-31T19:33:57.391776,14.8802174,0.0179738,64.7709,109.3389,247.7802,110.4157,0,U,40973,999,3539,0.0013049,0.00016103,0.0,6982.254218977259,CubeSat
ROBUSTA-1E (ENSO),2023-185J,2025-01-01T02:57:21.565728,15.37587317,0.0008571,97.3998,73.245,299.1586,60.88,0,U,58470,999,6039,0.00161,0.0005976,0.0,6831.383230897343,CubeSat
IRIDIUM 160,2018-061A,2024-12-31T19:06:42.299424,14.34217436,0.0002486,86.3942,279.242,82.1639,277.9839,0,U,43569,999,33706,0.00033825,9.67e-06,0.0,7155.805198789457,Iridium Next
SNAP-3 ALICE,2015-058G,2024-12-31T10:15:12.405024,15.09143321,0.0128072,64.7677,62.04,243.1674,115.6305,0,U,40970,999,3540,0.0023826,0.00046161,0.0,6916.953413301826,CubeSat
